{
  "norad_id": 59024,
  "name": "STARLINK-31006",
  "history": [
    {
      "epoch": "2026-03-28T16:06:01.693152",
      "apogee_km": 483.86629609167267,
      "perigee_km": 482.17021851206755,
      "latitude_deg": -41.5603099963391,
      "longitude_deg": 146.80188127979636,
      "semi_major_axis_km": 6861.15525730187,
      "eccentricity": 0.0001236,
      "inclination_deg": 42.9991,
      "raan_deg": 229.4109,
      "arg_perigee_deg": 266.4381,
      "mean_anomaly_deg": 93.6329,
      "mean_motion_rev_day": 15.27590299
    }
  ]
}