{"fetched_at":"2026-03-29T16:36:15Z","count":15609,"tles":[{"name":"STARLINK-31006","line1":"1 59024U 24038B   26087.67085293  .00003765  00000+0  14623-3 0  9999","line2":"2 59024  42.9991 229.4109 0001236 266.4381  93.6329 15.27590299118242","category":"Starlink"}]}